OBJECT_NAME,OBJECT_ID,EPOCH,MEAN_MOTION,ECCENTRICITY,INCLINATION,RA_OF_ASC_NODE,ARG_OF_PERICENTER,MEAN_ANOMALY,EPHEMERIS_TYPE,CLASSIFICATION_TYPE,NORAD_CAT_ID,ELEMENT_SET_NO,REV_AT_EPOCH,BSTAR,MEAN_MOTION_DOT,MEAN_MOTION_DDOT
ONEWEB-0123,2020-100M,2026-06-24T23:35:30.439680,13.12443608,.00019317,87.8940,349.1172,91.0969,269.0381,0,U,47269,999,26571,-.1040554E-2,-.362E-5,0
ONEWEB-0124,2020-100N,2026-06-25T04:50:12.743232,13.12441690,.00017594,87.8940,349.0767,89.7443,270.3887,0,U,47270,999,26562,-.11252513E-2,-.392E-5,0
ONEWEB-0125,2020-100P,2026-06-25T04:18:30.529728,13.12440640,.00018353,87.8954,349.0652,82.2045,277.9292,0,U,47271,999,26568,.21733913E-3,.91E-6,0
ONEWEB-0126,2020-100Q,2026-06-25T04:47:59.641440,13.12442610,.00019391,87.8946,349.0765,94.9687,265.1663,0,U,47272,999,26575,-.13149073E-2,-.46E-5,0
ONEWEB-0127,2020-100R,2026-06-25T05:48:47.115936,13.12441489,.00018729,87.8942,349.0663,96.1343,263.9999,0,U,47273,999,26578,.13667992E-2,.504E-5,0
ONEWEB-0128,2020-100S,2026-06-25T04:30:42.272064,13.12440633,.00015404,87.8935,349.0909,95.0648,265.0656,0,U,47274,999,26579,-.68981064E-3,-.235E-5,0
ONEWEB-0129,2020-100T,2026-06-25T04:01:26.380416,13.12443367,.00027199,87.8951,349.0695,111.0321,249.1099,0,U,47275,999,26572,.11404994E-2,.423E-5,0
ONEWEB-0130,2020-100U,2026-06-25T04:40:27.714144,13.12441998,.00018335,87.8949,349.0597,95.9666,264.1672,0,U,47276,999,26569,-.13824458E-2,-.485E-5,0
ONEWEB-0131,2020-100V,2026-06-25T04:35:35.705472,13.12443616,.00016374,87.8941,349.0774,94.7291,265.4024,0,U,47277,999,26573,-.88979211E-3,-.307E-5,0
ONEWEB-0132,2020-100W,2026-06-25T05:17:03.201216,13.12445144,.00017483,87.8942,349.0740,93.1648,266.9681,0,U,47278,999,26563,.52911556E-4,.32E-6,0
ONEWEB-0133,2020-100X,2026-06-25T05:41:16.005120,13.12441741,.00016453,87.8956,349.0476,93.3831,266.7486,0,U,47279,999,26579,.12182266E-2,.451E-5,0
ONEWEB-0134,2020-100Y,2026-06-25T04:57:31.482432,13.12441879,.00017802,87.8956,349.0507,101.1570,258.9759,0,U,47280,999,26576,-.96139221E-3,-.333E-5,0
ONEWEB-0135,2020-100Z,2026-06-25T04:16:04.213056,13.12441208,.0001654,87.8942,349.0782,101.4801,258.6513,0,U,47281,999,26578,.36161691E-3,.143E-5,0
ONEWEB-0136,2020-100AA,2026-06-25T04:42:53.600544,13.12441346,.00017774,87.8949,349.0564,102.8447,257.2880,0,U,47282,999,26571,-.99687776E-3,-.346E-5,0
ONEWEB-0137,2020-100AB,2026-06-25T05:31:42.468096,13.12442984,.00019309,87.8954,349.0602,89.4184,270.7166,0,U,47283,999,26562,.10133645E-2,.377E-5,0
ONEWEB-0138,2020-100AC,2026-06-25T04:59:58.083360,13.12445612,.00013138,87.8956,349.0694,108.5796,251.5475,0,U,47284,999,26570,-.65965364E-3,-.225E-5,0
ONEWEB-0139,2020-100AD,2026-06-25T04:08:57.582816,13.12440455,.00018468,87.8950,349.0631,93.7525,266.3815,0,U,47285,999,26577,.85415806E-3,.32E-5,0
ONEWEB-0140,2020-100AE,2026-06-25T04:52:39.125568,13.12442471,.00016326,87.8955,349.0478,92.1211,268.0105,0,U,47286,999,26574,-.12254585E-2,-.428E-5,0
ONEWEB-0141,2020-100AF,2026-06-25T04:08:33.513504,13.12441097,.00020799,87.8951,349.0590,88.0021,272.1345,0,U,47287,999,26572,.82318883E-3,.309E-5,0
ONEWEB-0142,2020-100AG,2026-06-25T05:41:41.353152,13.12442980,.00022316,87.8945,349.0672,95.4795,264.6588,0,U,47288,999,26572,.10471917E-2,.389E-5,0
ONEWEB-0143,2020-100AH,2026-06-25T04:06:19.183968,13.12441540,.00018365,87.8952,349.0796,91.9172,268.2167,0,U,47289,999,26569,.96481199E-3,.36E-5,0
ONEWEB-0144,2020-100AJ,2026-06-25T05:14:37.321728,13.12445884,.00019984,87.8955,349.0446,102.4868,257.6485,0,U,47290,999,26562,.1298273E-3,.59E-6,0
ONEWEB-0145,2020-100AK,2026-06-25T04:33:08.453952,13.12441284,.00018999,87.8941,349.0770,94.4449,265.6896,0,U,47291,999,26581,-.60108499E-3,-.204E-5,0
ONEWEB-0146,2020-100AL,2026-06-25T04:28:16.013280,13.12440964,.00015529,87.8952,349.0699,84.1407,275.9899,0,U,47292,999,26572,-.40388298E-3,-.133E-5,0
ONEWEB-0147,2020-100AM,2026-06-25T05:29:16.191168,13.12442072,.00016892,87.8953,349.0435,95.8900,264.2421,0,U,47293,999,26562,.76656906E-3,.288E-5,0
YAOGAN-33 01,2020-103A,2026-06-25T02:46:36.223392,14.58886092,.00044771,98.0410,57.4480,103.6920,256.4779,0,U,47302,999,29246,.84233445E-4,.35E-5,0
WEINA 2,2020-103B,2026-06-25T06:57:01.029600,14.65052900,.00025299,98.0531,65.3064,137.2680,222.8720,0,U,47303,999,29291,.14978189E-3,.757E-5,0
TURKSAT 5A,2021-001A,2026-06-24T02:31:31.540224,1.00271998,.00002298,0.0229,69.2459,354.4836,277.3390,0,U,47306,999,2003,0,.161E-5,0
TIANTONG-1 3,2021-003A,2026-06-25T04:25:57.567648,1.00270145,.00034814,1.7489,339.8547,117.0815,324.3713,0,U,47321,999,2004,0,-.144E-5,0
GMS-T,2021-004A,2026-06-25T03:25:42.147552,13.16657380,.00036631,90.1291,241.9281,53.1384,307.0084,0,U,47346,999,26064,-.74943617E-4,-.2E-6,0
STARLINK-2017,2021-005C,2026-06-25T06:24:39.708864,15.31712944,.0001197,53.1584,233.1717,88.9830,271.1309,0,U,47351,999,30020,.60608276E-4,.1517E-4,0
STARLINK-2034,2021-005D,2026-06-24T12:57:37.192320,15.31711083,.00008537,53.1594,275.6218,81.9294,278.1804,0,U,47352,999,29954,.17074438E-3,.4939E-4,0
STARLINK-2045,2021-005E,2026-06-24T20:28:39.079776,15.31707459,.00012121,53.1580,222.0924,90.3981,269.7160,0,U,47353,999,30032,.10523608E-3,.2903E-4,0
STARLINK-2046,2021-005F,2026-06-24T11:26:41.018496,15.31697845,.00013224,53.1593,247.1678,96.7324,263.3828,0,U,47354,999,29993,.43465575E-4,.984E-5,0
STARLINK-2047,2021-005G,2026-06-25T06:56:44.475360,15.31719317,.00011436,53.1578,230.3996,69.3397,290.7727,0,U,47355,999,30023,.22577816E-3,.6652E-4,0
STARLINK-2049,2021-005H,2026-06-24T11:51:16.396128,15.31661816,.00011266,53.1568,260.0837,78.7456,281.3672,0,U,47356,999,29974,.2920358E-3,.8697E-4,0
STARLINK-2050,2021-005J,2026-06-24T11:34:15.898080,15.31744774,.00014071,53.1588,286.0488,103.5142,256.6016,0,U,47357,999,29938,-.34537569E-3,-.11082E-3,0
STARLINK-2055,2021-005K,2026-06-24T11:31:50.635488,15.31481234,.00016022,53.1586,260.5850,6.5154,353.5868,0,U,47358,999,29973,.83245503E-3,.2538E-3,0
STARLINK-2071,2021-005N,2026-06-23T12:16:11.126496,15.31709336,.00011805,53.1604,265.1203,97.6601,262.4534,0,U,47361,999,29958,.6168741E-5,-.174E-5,0
STARLINK-2076,2021-005P,2026-06-24T14:23:44.909376,15.36921156,.00044196,53.1563,284.0455,325.2254,34.8460,0,U,47362,999,29942,.87703664E-3,.31881E-3,0
STARLINK-2081,2021-005T,2026-06-24T14:34:55.779456,15.31705366,.00009521,53.1579,285.1771,94.5643,265.5467,0,U,47366,999,29940,.7737286E-5,-.125E-5,0
STARLINK-2082,2021-005U,2026-06-24T13:47:57.537600,15.31702381,.00008958,53.1610,285.4027,81.4486,278.6617,0,U,47367,999,29940,.42694655E-4,.96E-5,0
STARLINK-2084,2021-005V,2026-06-24T11:40:53.527296,15.31697600,.00013335,53.1581,285.6530,86.5575,273.5579,0,U,47368,999,29939,-.6070951E-5,-.554E-5,0
STARLINK-2088,2021-005Y,2026-06-24T00:50:36.982464,15.31703030,.00012797,53.1600,291.5996,89.3312,270.7836,0,U,47371,999,29926,.77454529E-4,.2039E-4,0
STARLINK-2092,2021-005AA,2026-06-24T00:56:06.156096,15.31703054,.00010523,53.1613,287.7254,77.5649,282.5470,0,U,47373,999,29932,.10451749E-3,.288E-4,0
STARLINK-2093,2021-005AB,2026-06-25T04:27:59.479776,16.07504863,.00101313,53.0349,225.8893,359.4179,0.6840,0,U,47374,999,30026,.10316828E-2,.850916E-2,.39756994E-3
STARLINK-2094,2021-005AC,2026-06-24T14:08:04.086816,15.31700360,.00010279,53.1563,285.1943,79.3564,280.7553,0,U,47375,999,29940,.17569007E-3,.5091E-4,0
STARLINK-2096,2021-005AD,2026-06-24T14:14:46.669344,15.31710140,.00013249,53.1598,285.1840,96.8231,263.2921,0,U,47376,999,29940,-.112317E-5,-.4E-5,0
STARLINK-2097,2021-005AE,2026-06-24T00:57:47.998368,15.31705325,.00010966,53.1598,291.5097,87.7165,272.3962,0,U,47377,999,29926,.79208652E-4,.2094E-4,0
STARLINK-2098,2021-005AF,2026-06-24T10:56:58.426656,15.31703968,.00010274,53.1590,237.4559,84.5915,275.5204,0,U,47378,999,30007,.1522823E-4,.108E-5,0
STARLINK-2099,2021-005AG,2026-06-24T20:34:02.107776,15.31710873,.00010213,53.1570,234.9655,86.4431,273.6687,0,U,47379,999,30014,.90988295E-4,.246E-4,0
STARLINK-2100,2021-005AH,2026-06-25T06:39:26.616096,15.83271088,.00105526,53.0517,229.3838,1.8712,358.2348,0,U,47380,999,30023,.95172771E-3,.215401E-2,0
STARLINK-2101,2021-005AJ,2026-06-24T12:52:43.011552,15.31707013,.00014173,53.1592,260.3349,89.1077,271.0087,0,U,47381,999,29975,.99248113E-4,.2716E-4,0
STARLINK-2102,2021-005AK,2026-06-24T11:01:17.976576,15.31696633,.00014714,53.1585,249.8169,87.0790,273.0380,0,U,47382,999,29989,-.964574E-6,-.395E-5,0
STARLINK-2103,2021-005AL,2026-06-25T07:06:55.643040,15.35729458,.0004745,53.1580,232.9508,0.5740,359.5268,0,U,47383,999,30021,.12186992E-2,.42834E-3,0
STARLINK-2104,2021-005AM,2026-06-24T12:32:34.545120,15.31706287,.0001395,53.1588,260.4010,97.5703,262.5456,0,U,47384,999,29974,.10041224E-3,.2752E-4,0
STARLINK-2105,2021-005AN,2026-06-24T12:18:08.005824,15.31706631,.00013092,53.1603,260.1192,89.1786,270.9366,0,U,47385,999,29974,.65172054E-4,.1658E-4,0
STARLINK-2106,2021-005AP,2026-06-24T12:12:27.022176,15.31705143,.00011796,53.1605,260.4885,82.3143,277.7992,0,U,47386,999,29974,.68459061E-4,.176E-4,0
STARLINK-2109,2021-005AR,2026-06-24T11:08:03.261696,15.31699964,.00007731,53.1579,289.5312,16.3773,343.7253,0,U,47388,999,29932,.4527067E-4,.104E-4,0
STARLINK-2110,2021-005AS,2026-06-24T12:51:07.892064,15.31948511,.00014403,53.1562,259.6482,59.0923,301.0220,0,U,47389,999,29976,.11253482E-2,.34992E-3,0
STARLINK-2111,2021-005AT,2026-06-24T01:10:44.664384,15.31703959,.0000998,53.1600,291.5188,89.8061,270.3055,0,U,47390,999,29926,.37544905E-4,.8E-5,0
STARLINK-2112,2021-005AU,2026-06-24T10:29:56.785920,15.12318415,.00009882,53.0651,270.0298,324.4159,35.6767,0,U,47391,999,29958,.62602951E-3,.10688E-3,0
STARLINK-2113,2021-005AV,2026-06-25T06:00:02.000160,15.89561545,.00048221,53.0398,203.2103,32.9257,142.9200,0,U,47392,999,594,.88183393E-3,.272323E-2,0
STARLINK-2119,2021-005BA,2026-06-25T07:16:38.629632,15.35210909,.00034182,53.1581,281.5566,347.5172,12.5746,0,U,47397,999,29952,.11151563E-2,.38486E-3,0
